[{"OBJECT_NAME":"STARLINK-35475","OBJECT_ID":"2025-223M","EPOCH":"2026-03-08T22:17:55.987008","MEAN_MOTION":15.302029,"ECCENTRICITY":0.0001193,"INCLINATION":53.1572,"RA_OF_ASC_NODE":297.3932,"ARG_OF_PERICENTER":75.081,"MEAN_ANOMALY":285.0323,"EPHEMERIS_TYPE":0,"CLASSIFICATION_TYPE":"U","NORAD_CAT_ID":65865,"ELEMENT_SET_NO":999,"REV_AT_EPOCH":2409,"BSTAR":0.00050900752,"MEAN_MOTION_DOT":0.00014747,"MEAN_MOTION_DDOT":0},{"OBJECT_NAME":"OBJECT BE","OBJECT_ID":"2025-313BE","EPOCH":"2026-03-09T16:43:59.380320","MEAN_MOTION":15.29801687,"ECCENTRICITY":0.00072083,"INCLINATION":97.3989,"RA_OF_ASC_NODE":145.3568,"ARG_OF_PERICENTER":335.3714,"MEAN_ANOMALY":24.7181,"EPHEMERIS_TYPE":0,"CLASSIFICATION_TYPE":"U","NORAD_CAT_ID":67482,"ELEMENT_SET_NO":999,"REV_AT_EPOCH":797,"BSTAR":0.0026504328,"MEAN_MOTION_DOT":0.00077178,"MEAN_MOTION_DDOT":0}]
